    CK18V010  2018 12  3.5105  0.386980  1.000000   88.7770  128.7145  143.9939            12.0  4.0  C/2018 V1 (Machholz-Fujikawa-Iwamoto)                    MPEC 2018-W46